{"type": "FeatureCollection", "features": [ {"type": "Feature", "properties": {"norad_id": 45358, "name": "COSMOS 2545 (760)", "group": "glo-ops", "lat": -24.30222353952798, "lon": 151.14819082717457, "alt_km": 19111.64522802686, "timestamp": "2025-12-20T05:41:50.291519+00:00", "meta": {"OBJECT_NAME": "COSMOS 2545 (760)", "OBJECT_ID": "2020-018A", "EPOCH": "2025-12-19T00:41:16.420128", "MEAN_MOTION": 2.13102611, "ECCENTRICITY": 0.0011548, "INCLINATION": 64.4657, "RA_OF_ASC_NODE": 318.7488, "ARG_OF_PERICENTER": 249.6698, "MEAN_ANOMALY": 110.1972, "EPHEMERIS_TYPE": 0, "CLASSIFICATION_TYPE": "U", "NORAD_CAT_ID": 45358, "ELEMENT_SET_NO": 999, "REV_AT_EPOCH": 4482, "BSTAR": 0, "MEAN_MOTION_DOT": -6.1e-07, "MEAN_MOTION_DDOT": 0}, "tle": {"line1": "1 45358U 20018A   25353.02866227 -.00000061  00000+0  00000+0 0  9993", "line2": "2 45358  64.4657 318.7488 0011548 249.6698 110.1972  2.13102611 44827"}}, "geometry": {"type": "Point", "coordinates": [151.14819082717457, -24.30222353952798]}}, {"type": "Feature", "properties": {"norad_id": 46805, "name": "COSMOS 2547 (705K)", "group": "glo-ops", "lat": 53.499155643959334, "lon": -121.5693468715762, "alt_km": 19139.123602517102, "timestamp": "2025-12-20T05:41:50.291530+00:00", "meta": {"OBJECT_NAME": "COSMOS 2547 (705K)", "OBJECT_ID": "2020-075A", "EPOCH": "2025-12-19T05:12:13.762080", "MEAN_MOTION": 2.13100175, "ECCENTRICITY": 0.0006125, "INCLINATION": 64.5965, "RA_OF_ASC_NODE": 198.4802, "ARG_OF_PERICENTER": 227.9307, "MEAN_ANOMALY": 132.0972, "EPHEMERIS_TYPE": 0, "CLASSIFICATION_TYPE": "U", "NORAD_CAT_ID": 46805, "ELEMENT_SET_NO": 999, "REV_AT_EPOCH": 4007, "BSTAR": 0, "MEAN_MOTION_DOT": 1.06e-06, "MEAN_MOTION_DDOT": 0}, "tle": {"line1": "1 46805U 20075A   25353.21682595  .00000106  00000+0  00000+0 0  9998", "line2": "2 46805  64.5965 198.4802 0006125 227.9307 132.0972  2.13100175 40071"}}, "geometry": {"type": "Point", "coordinates": [-121.5693468715762, 53.499155643959334]}}, {"type": "Feature", "properties": {"norad_id": 52984, "name": "COSMOS 2557 (706K)", "group": "glo-ops", "lat": -54.082347720317536, "lon": -80.63797641578303, "alt_km": 19103.070647099375, "timestamp": "2025-12-20T05:41:50.291541+00:00", "meta": {"OBJECT_NAME": "COSMOS 2557 (706K)", "OBJECT_ID": "2022-075A", "EPOCH": "2025-12-18T21:54:24.162624", "MEAN_MOTION": 2.1310197, "ECCENTRICITY": 0.00135327, "INCLINATION": 64.4064, "RA_OF_ASC_NODE": 320.8341, "ARG_OF_PERICENTER": 277.9279, "MEAN_ANOMALY": 81.9104, "EPHEMERIS_TYPE": 0, "CLASSIFICATION_TYPE": "U", "NORAD_CAT_ID": 52984, "ELEMENT_SET_NO": 999, "REV_AT_EPOCH": 2687, "BSTAR": 0, "MEAN_MOTION_DOT": -6.2e-07, "MEAN_MOTION_DDOT": 0}, "tle": {"line1": "1 52984U 22075A   25352.91277966 -.00000062  00000+0  00000+0 0  9995", "line2": "2 52984  64.4064 320.8341 0013532 277.9279  81.9104  2.13101970 26872"}}, "geometry": {"type": "Point", "coordinates": [-80.63797641578303, -54.082347720317536]}}, {"type": "Feature", "properties": {"norad_id": 54031, "name": "COSMOS 2559 (707K)", "group": "glo-ops", "lat": 60.456849739773816, "lon": 18.67850222616298, "alt_km": 19136.781075592167, "timestamp": "2025-12-20T05:41:50.291552+00:00", "meta": {"OBJECT_NAME": "COSMOS 2559 (707K)", "OBJECT_ID": "2022-130A", "EPOCH": "2025-12-19T04:49:46.570944", "MEAN_MOTION": 2.13101385, "ECCENTRICITY": 0.0011608, "INCLINATION": 64.3786, "RA_OF_ASC_NODE": 320.9138, "ARG_OF_PERICENTER": 191.996, "MEAN_ANOMALY": 167.9688, "EPHEMERIS_TYPE": 0, "CLASSIFICATION_TYPE": "U", "NORAD_CAT_ID": 54031, "ELEMENT_SET_NO": 999, "REV_AT_EPOCH": 2485, "BSTAR": 0, "MEAN_MOTION_DOT": -6.1e-07, "MEAN_MOTION_DDOT": 0}, "tle": {"line1": "1 54031U 22130A   25353.20123346 -.00000061  00000+0  00000+0 0  9996", "line2": "2 54031  64.3786 320.9138 0011608 191.9960 167.9688  2.13101385 24854"}}, "geometry": {"type": "Point", "coordinates": [18.67850222616298, 60.456849739773816]}}, {"type": "Feature", "properties": {"norad_id": 54377, "name": "COSMOS 2564 (761)", "group": "glo-ops", "lat": -13.030642034421897, "lon": 24.931150498942603, "alt_km": 19110.534261375167, "timestamp": "2025-12-20T05:41:50.291564+00:00", "meta": {"OBJECT_NAME": "COSMOS 2564 (761)", "OBJECT_ID": "2022-161A", "EPOCH": "2025-12-19T01:05:24.764064", "MEAN_MOTION": 2.13102078, "ECCENTRICITY": 0.0008559, "INCLINATION": 64.7386, "RA_OF_ASC_NODE": 198.6894, "ARG_OF_PERICENTER": 204.0173, "MEAN_ANOMALY": 156.0236, "EPHEMERIS_TYPE": 0, "CLASSIFICATION_TYPE": "U", "NORAD_CAT_ID": 54377, "ELEMENT_SET_NO": 999, "REV_AT_EPOCH": 2379, "BSTAR": 0, "MEAN_MOTION_DOT": 1.07e-06, "MEAN_MOTION_DDOT": 0}, "tle": {"line1": "1 54377U 22161A   25353.04542551  .00000107  00000+0  00000+0 0  9998", "line2": "2 54377  64.7386 198.6894 0008559 204.0173 156.0236  2.13102078 23799"}}, "geometry": {"type": "Point", "coordinates": [24.931150498942603, -13.030642034421897]}}, {"type": "Feature", "properties": {"norad_id": 57517, "name": "COSMOS 2569 (703K)", "group": "glo-ops", "lat": -3.6589486733994434, "lon": -99.6360310351013, "alt_km": 19136.91138068214, "timestamp": "2025-12-20T05:41:50.291575+00:00", "meta": {"OBJECT_NAME": "COSMOS 2569 (703K)", "OBJECT_ID": "2023-114A", "EPOCH": "2025-12-19T12:40:20.363808", "MEAN_MOTION": 2.13104046, "ECCENTRICITY": 0.0010771, "INCLINATION": 65.1977, "RA_OF_ASC_NODE": 78.6841, "ARG_OF_PERICENTER": 287.0303, "MEAN_ANOMALY": 72.8809, "EPHEMERIS_TYPE": 0, "CLASSIFICATION_TYPE": "U", "NORAD_CAT_ID": 57517, "ELEMENT_SET_NO": 999, "REV_AT_EPOCH": 1843, "BSTAR": 0, "MEAN_MOTION_DOT": -2.7e-07, "MEAN_MOTION_DDOT": 0}, "tle": {"line1": "1 57517U 23114A   25353.52801347 -.00000027  00000+0  00000+0 0  9992", "line2": "2 57517  65.1977  78.6841 0010771 287.0303  72.8809  2.13104046 18436"}}, "geometry": {"type": "Point", "coordinates": [-99.6360310351013, -3.6589486733994434]}}, {"type": "Feature", "properties": {"norad_id": 63130, "name": "COSMOS 2584 (704K)", "group": "glo-ops", "lat": -64.97654707217006, "lon": -8.18349943502125, "alt_km": 19124.50775519082, "timestamp": "2025-12-20T05:41:50.291586+00:00", "meta": {"OBJECT_NAME": "COSMOS 2584 (704K)", "OBJECT_ID": "2025-042A", "EPOCH": "2025-12-18T11:25:35.911776", "MEAN_MOTION": 2.13103072, "ECCENTRICITY": 0.00077091, "INCLINATION": 64.979, "RA_OF_ASC_NODE": 78.9506, "ARG_OF_PERICENTER": 218.5301, "MEAN_ANOMALY": 141.4378, "EPHEMERIS_TYPE": 0, "CLASSIFICATION_TYPE": "U", "NORAD_CAT_ID": 63130, "ELEMENT_SET_NO": 999, "REV_AT_EPOCH": 619, "BSTAR": 0, "MEAN_MOTION_DOT": -3.8e-07, "MEAN_MOTION_DDOT": 0}, "tle": {"line1": "1 63130U 25042A   25352.47611009 -.00000038  00000+0  00000+0 0  9991", "line2": "2 63130  64.9790  78.9506 0007709 218.5301 141.4378  2.13103072  6191"}}, "geometry": {"type": "Point", "coordinates": [-8.18349943502125, -64.97654707217006]}}, {"type": "Feature", "properties": {"norad_id": 65590, "name": "COSMOS 2596 (708K)", "group": "glo-ops", "lat": 26.659913051811937, "lon": -25.09627448507348, "alt_km": 19122.546363692534, "timestamp": "2025-12-20T05:41:50.291597+00:00", "meta": {"OBJECT_NAME": "COSMOS 2596 (708K)", "OBJECT_ID": "2025-206B", "EPOCH": "2025-12-19T12:37:39.326304", "MEAN_MOTION": 2.13100498, "ECCENTRICITY": 0.0014057, "INCLINATION": 64.7407, "RA_OF_ASC_NODE": 321.239, "ARG_OF_PERICENTER": 306.9222, "MEAN_ANOMALY": 257.0198, "EPHEMERIS_TYPE": 0, "CLASSIFICATION_TYPE": "U", "NORAD_CAT_ID": 65590, "ELEMENT_SET_NO": 999, "REV_AT_EPOCH": 208, "BSTAR": 0, "MEAN_MOTION_DOT": -5.9e-07, "MEAN_MOTION_DDOT": 0}, "tle": {"line1": "1 65590U 25206B   25353.52614961 -.00000059  00000+0  00000+0 0  9995", "line2": "2 65590  64.7407 321.2390 0014057 306.9222 257.0198  2.13100498  2086"}}, "geometry": {"type": "Point", "coordinates": [-25.09627448507348, 26.659913051811937]}}]}